{"type": "FeatureCollection", "features": [ {"type": "Feature", "properties": {"norad_id": 41836, "name": "HIMAWARI-9", "group": "weather", "lat": 0.0025212009644098644, "lon": -40.33365592613351, "alt_km": 35776.93660119212, "timestamp": "2025-12-02T07:10:08.751753+00:00", "meta": {"OBJECT_NAME": "HIMAWARI-9", "OBJECT_ID": "2016-064A", "EPOCH": "2025-12-01T20:24:38.619936", "MEAN_MOTION": 1.00272319, "ECCENTRICITY": 0.0002309, "INCLINATION": 0.0209, "RA_OF_ASC_NODE": 319.9176, "ARG_OF_PERICENTER": 338.5098, "MEAN_ANOMALY": 219.4399, "EPHEMERIS_TYPE": 0, "CLASSIFICATION_TYPE": "U", "NORAD_CAT_ID": 41836, "ELEMENT_SET_NO": 999, "REV_AT_EPOCH": 3323, "BSTAR": 0, "MEAN_MOTION_DOT": 0, "MEAN_MOTION_DDOT": 0}, "tle": {"line1": "1 41836U 16064A   25335.85044699  .00000000  00000+0  00000+0 0  9990", "line2": "2 41836   0.0209 319.9176 0002309 338.5098 219.4399  1.00272319 33234"}}, "geometry": {"type": "Point", "coordinates": [-40.33365592613351, 0.0025212009644098644]}}, {"type": "Feature", "properties": {"norad_id": 41866, "name": "GOES 16", "group": "weather", "lat": 0.0029729561045634995, "lon": 74.24670137862574, "alt_km": 35800.374718452345, "timestamp": "2025-12-02T07:10:08.751765+00:00", "meta": {"OBJECT_NAME": "GOES 16", "OBJECT_ID": "2016-071A", "EPOCH": "2025-12-01T19:39:12.392352", "MEAN_MOTION": 1.00270895, "ECCENTRICITY": 0.0003316, "INCLINATION": 0.0541, "RA_OF_ASC_NODE": 109.2786, "ARG_OF_PERICENTER": 146.7802, "MEAN_ANOMALY": 5.0091, "EPHEMERIS_TYPE": 0, "CLASSIFICATION_TYPE": "U", "NORAD_CAT_ID": 41866, "ELEMENT_SET_NO": 999, "REV_AT_EPOCH": 3312, "BSTAR": 0, "MEAN_MOTION_DOT": -7e-07, "MEAN_MOTION_DDOT": 0}, "tle": {"line1": "1 41866U 16071A   25335.81889343 -.00000070  00000+0  00000+0 0  9998", "line2": "2 41866   0.0541 109.2786 0003316 146.7802   5.0091  1.00270895 33127"}}, "geometry": {"type": "Point", "coordinates": [74.24670137862574, 0.0029729561045634995]}}, {"type": "Feature", "properties": {"norad_id": 41882, "name": "FENGYUN 4A", "group": "weather", "lat": -1.1795110004948814, "lon": -57.34295492941073, "alt_km": 35780.222169790504, "timestamp": "2025-12-02T07:10:08.751777+00:00", "meta": {"OBJECT_NAME": "FENGYUN 4A", "OBJECT_ID": "2016-077A", "EPOCH": "2025-12-01T20:01:38.686656", "MEAN_MOTION": 1.00279129, "ECCENTRICITY": 0.000499, "INCLINATION": 1.8191, "RA_OF_ASC_NODE": 82.4954, "ARG_OF_PERICENTER": 140.9222, "MEAN_ANOMALY": 271.6277, "EPHEMERIS_TYPE": 0, "CLASSIFICATION_TYPE": "U", "NORAD_CAT_ID": 41882, "ELEMENT_SET_NO": 999, "REV_AT_EPOCH": 3295, "BSTAR": 0, "MEAN_MOTION_DOT": -3.35e-06, "MEAN_MOTION_DDOT": 0}, "tle": {"line1": "1 41882U 16077A   25335.83447554 -.00000335  00000+0  00000+0 0  9992", "line2": "2 41882   1.8191  82.4954 0004990 140.9222 271.6277  1.00279129 32951"}}, "geometry": {"type": "Point", "coordinates": [-57.34295492941073, -1.1795110004948814]}}, {"type": "Feature", "properties": {"norad_id": 41884, "name": "CYGFM05", "group": "weather", "lat": 30.705107077975843, "lon": 173.524709794226, "alt_km": 413.5540310428287, "timestamp": "2025-12-02T07:10:08.751788+00:00", "meta": {"OBJECT_NAME": "CYGFM05", "OBJECT_ID": "2016-078A", "EPOCH": "2025-12-01T18:30:29.634048", "MEAN_MOTION": 15.47019766, "ECCENTRICITY": 0.0009427, "INCLINATION": 34.9578, "RA_OF_ASC_NODE": 118.747, "ARG_OF_PERICENTER": 77.0168, "MEAN_ANOMALY": 283.1606, "EPHEMERIS_TYPE": 0, "CLASSIFICATION_TYPE": "U", "NORAD_CAT_ID": 41884, "ELEMENT_SET_NO": 999, "REV_AT_EPOCH": 49806, "BSTAR": 0.00040108, "MEAN_MOTION_DOT": 0.00020925, "MEAN_MOTION_DDOT": 0}, "tle": {"line1": "1 41884U 16078A   25335.77117632  .00020925  00000+0  40108-3 0  9992", "line2": "2 41884  34.9578 118.7470 0009427  77.0168 283.1606 15.47019766498061"}}, "geometry": {"type": "Point", "coordinates": [173.524709794226, 30.705107077975843]}}, {"type": "Feature", "properties": {"norad_id": 41885, "name": "CYGFM04", "group": "weather", "lat": -11.967986324176584, "lon": -71.94340830279441, "alt_km": 417.9325365898976, "timestamp": "2025-12-02T07:10:08.751799+00:00", "meta": {"OBJECT_NAME": "CYGFM04", "OBJECT_ID": "2016-078B", "EPOCH": "2025-12-01T17:56:12.662592", "MEAN_MOTION": 15.49568378, "ECCENTRICITY": 0.0008511, "INCLINATION": 34.9335, "RA_OF_ASC_NODE": 93.9902, "ARG_OF_PERICENTER": 107.3398, "MEAN_ANOMALY": 252.8256, "EPHEMERIS_TYPE": 0, "CLASSIFICATION_TYPE": "U", "NORAD_CAT_ID": 41885, "ELEMENT_SET_NO": 999, "REV_AT_EPOCH": 49823, "BSTAR": 0.0011322, "MEAN_MOTION_DOT": 0.00065033, "MEAN_MOTION_DDOT": 0}, "tle": {"line1": "1 41885U 16078B   25335.74736878  .00065033  00000+0  11322-2 0  9993", "line2": "2 41885  34.9335  93.9902 0008511 107.3398 252.8256 15.49568378498235"}}, "geometry": {"type": "Point", "coordinates": [-71.94340830279441, -11.967986324176584]}}, {"type": "Feature", "properties": {"norad_id": 41886, "name": "CYGFM02", "group": "weather", "lat": 9.606755341282966, "lon": -105.19209879442232, "alt_km": 406.9722828702261, "timestamp": "2025-12-02T07:10:08.751809+00:00", "meta": {"OBJECT_NAME": "CYGFM02", "OBJECT_ID": "2016-078C", "EPOCH": "2025-12-01T18:06:46.148256", "MEAN_MOTION": 15.5099995, "ECCENTRICITY": 0.0010129, "INCLINATION": 34.9427, "RA_OF_ASC_NODE": 92.4094, "ARG_OF_PERICENTER": 106.5593, "MEAN_ANOMALY": 253.6242, "EPHEMERIS_TYPE": 0, "CLASSIFICATION_TYPE": "U", "NORAD_CAT_ID": 41886, "ELEMENT_SET_NO": 999, "REV_AT_EPOCH": 49836, "BSTAR": 0.0004276, "MEAN_MOTION_DOT": 0.00025703, "MEAN_MOTION_DDOT": 0}, "tle": {"line1": "1 41886U 16078C   25335.75470079  .00025703  00000+0  42760-3 0  9994", "line2": "2 41886  34.9427  92.4094 0010129 106.5593 253.6242 15.50999950498364"}}, "geometry": {"type": "Point", "coordinates": [-105.19209879442232, 9.606755341282966]}}, {"type": "Feature", "properties": {"norad_id": 41887, "name": "CYGFM01", "group": "weather", "lat": 34.81332427954004, "lon": -157.41262598193484, "alt_km": 411.2554594558569, "timestamp": "2025-12-02T07:10:08.751820+00:00", "meta": {"OBJECT_NAME": "CYGFM01", "OBJECT_ID": "2016-078D", "EPOCH": "2025-12-01T18:24:55.875168", "MEAN_MOTION": 15.47580831, "ECCENTRICITY": 0.0009136, "INCLINATION": 34.9408, "RA_OF_ASC_NODE": 121.1991, "ARG_OF_PERICENTER": 68.019, "MEAN_ANOMALY": 292.1502, "EPHEMERIS_TYPE": 0, "CLASSIFICATION_TYPE": "U", "NORAD_CAT_ID": 41887, "ELEMENT_SET_NO": 999, "REV_AT_EPOCH": 49800, "BSTAR": 0.00039114, "MEAN_MOTION_DOT": 0.00020807, "MEAN_MOTION_DDOT": 0}, "tle": {"line1": "1 41887U 16078D   25335.76731337  .00020807  00000+0  39114-3 0  9992", "line2": "2 41887  34.9408 121.1991 0009136  68.0190 292.1502 15.47580831498009"}}, "geometry": {"type": "Point", "coordinates": [-157.41262598193484, 34.81332427954004]}}, {"type": "Feature", "properties": {"norad_id": 41888, "name": "CYGFM08", "group": "weather", "lat": 34.92171658288164, "lon": -170.05659995586393, "alt_km": 406.744576908236, "timestamp": "2025-12-02T07:10:08.751830+00:00", "meta": {"OBJECT_NAME": "CYGFM08", "OBJECT_ID": "2016-078E", "EPOCH": "2025-12-01T18:24:36.537984", "MEAN_MOTION": 15.48751854, "ECCENTRICITY": 0.001064, "INCLINATION": 34.9442, "RA_OF_ASC_NODE": 104.3169, "ARG_OF_PERICENTER": 94.5442, "MEAN_ANOMALY": 265.6495, "EPHEMERIS_TYPE": 0, "CLASSIFICATION_TYPE": "U", "NORAD_CAT_ID": 41888, "ELEMENT_SET_NO": 999, "REV_AT_EPOCH": 49823, "BSTAR": 0.00042339, "MEAN_MOTION_DOT": 0.00023493, "MEAN_MOTION_DDOT": 0}, "tle": {"line1": "1 41888U 16078E   25335.76708956  .00023493  00000+0  42339-3 0  9991", "line2": "2 41888  34.9442 104.3169 0010640  94.5442 265.6495 15.48751854498231"}}, "geometry": {"type": "Point", "coordinates": [-170.05659995586393, 34.92171658288164]}}, {"type": "Feature", "properties": {"norad_id": 41890, "name": "CYGFM07", "group": "weather", "lat": 28.030746675813415, "lon": 139.55294245902988, "alt_km": 410.5776492160012, "timestamp": "2025-12-02T07:10:08.751841+00:00", "meta": {"OBJECT_NAME": "CYGFM07", "OBJECT_ID": "2016-078G", "EPOCH": "2025-12-01T17:00:51.429312", "MEAN_MOTION": 15.49317127, "ECCENTRICITY": 0.0008846, "INCLINATION": 34.9465, "RA_OF_ASC_NODE": 93.7396, "ARG_OF_PERICENTER": 112.6785, "MEAN_ANOMALY": 247.4873, "EPHEMERIS_TYPE": 0, "CLASSIFICATION_TYPE": "U", "NORAD_CAT_ID": 41890, "ELEMENT_SET_NO": 999, "REV_AT_EPOCH": 49824, "BSTAR": 0.00041134, "MEAN_MOTION_DOT": 0.00023267, "MEAN_MOTION_DDOT": 0}, "tle": {"line1": "1 41890U 16078G   25335.70892858  .00023267  00000+0  41134-3 0  9994", "line2": "2 41890  34.9465  93.7396 0008846 112.6785 247.4873 15.49317127498240"}}, "geometry": {"type": "Point", "coordinates": [139.55294245902988, 28.030746675813415]}}, {"type": "Feature", "properties": {"norad_id": 41891, "name": "CYGFM03", "group": "weather", "lat": -33.34284277468437, "lon": -17.759603713944873, "alt_km": 425.76010698573555, "timestamp": "2025-12-02T07:10:08.751860+00:00", "meta": {"OBJECT_NAME": "CYGFM03", "OBJECT_ID": "2016-078H", "EPOCH": "2025-12-01T17:42:27.476928", "MEAN_MOTION": 15.49223321, "ECCENTRICITY": 0.0008246, "INCLINATION": 34.9416, "RA_OF_ASC_NODE": 95.4618, "ARG_OF_PERICENTER": 98.9821, "MEAN_ANOMALY": 261.1834, "EPHEMERIS_TYPE": 0, "CLASSIFICATION_TYPE": "U", "NORAD_CAT_ID": 41891, "ELEMENT_SET_NO": 999, "REV_AT_EPOCH": 49822, "BSTAR": 0.00041404, "MEAN_MOTION_DOT": 0.00023338, "MEAN_MOTION_DDOT": 0}, "tle": {"line1": "1 41891U 16078H   25335.73781802  .00023338  00000+0  41404-3 0  9993", "line2": "2 41891  34.9416  95.4618 0008246  98.9821 261.1834 15.49223321498224"}}, "geometry": {"type": "Point", "coordinates": [-17.759603713944873, -33.34284277468437]}}]}